[{"OBJECT_NAME":"NOAA 1","OBJECT_ID":"1970-106A","EPOCH":"2026-04-05T21:02:42.111456","MEAN_MOTION":12.54049785,"ECCENTRICITY":0.0032064,"INCLINATION":101.3454,"RA_OF_ASC_NODE":133.7542,"ARG_OF_PERICENTER":128.0285,"MEAN_ANOMALY":46.0276,"EPHEMERIS_TYPE":0,"CLASSIFICATION_TYPE":"U","NORAD_CAT_ID":4793,"ELEMENT_SET_NO":999,"REV_AT_EPOCH":53162,"BSTAR":3.7842e-5,"MEAN_MOTION_DOT":-3.6e-7,"MEAN_MOTION_DDOT":0},{"OBJECT_NAME":"NOAA 2 (ITOS-D)","OBJECT_ID":"1972-082A","EPOCH":"2026-04-05T19:45:02.458368","MEAN_MOTION":12.53212777,"ECCENTRICITY":0.0003726,"INCLINATION":102.0138,"RA_OF_ASC_NODE":113.5883,"ARG_OF_PERICENTER":311.3696,"MEAN_ANOMALY":221.3952,"EPHEMERIS_TYPE":0,"CLASSIFICATION_TYPE":"U","NORAD_CAT_ID":6235,"ELEMENT_SET_NO":999,"REV_AT_EPOCH":44588,"BSTAR":6.4244e-5,"MEAN_MOTION_DOT":-3.6e-7,"MEAN_MOTION_DDOT":0},{"OBJECT_NAME":"NOAA 3","OBJECT_ID":"1973-086A","EPOCH":"2026-04-05T19:06:26.093376","MEAN_MOTION":12.40392528,"ECCENTRICITY":0.0006191,"INCLINATION":102.2889,"RA_OF_ASC_NODE":109.0386,"ARG_OF_PERICENTER":257.2025,"MEAN_ANOMALY":276.8767,"EPHEMERIS_TYPE":0,"CLASSIFICATION_TYPE":"U","NORAD_CAT_ID":6920,"ELEMENT_SET_NO":999,"REV_AT_EPOCH":37292,"BSTAR":3.8162e-5,"MEAN_MOTION_DOT":-4.1e-7,"MEAN_MOTION_DDOT":0},{"OBJECT_NAME":"NOAA 4","OBJECT_ID":"1974-089A","EPOCH":"2026-04-05T19:16:09.869664","MEAN_MOTION":12.53202293,"ECCENTRICITY":0.0008828,"INCLINATION":102.0058,"RA_OF_ASC_NODE":107.8251,"ARG_OF_PERICENTER":337.2501,"MEAN_ANOMALY":195.8634,"EPHEMERIS_TYPE":0,"CLASSIFICATION_TYPE":"U","NORAD_CAT_ID":7529,"ELEMENT_SET_NO":999,"REV_AT_EPOCH":35045,"BSTAR":9.2915e-6,"MEAN_MOTION_DOT":-4.5e-7,"MEAN_MOTION_DDOT":0},{"OBJECT_NAME":"NOAA 5","OBJECT_ID":"1976-077A","EPOCH":"2026-04-05T20:02:28.233600","MEAN_MOTION":12.37829292,"ECCENTRICITY":0.0010097,"INCLINATION":102.2992,"RA_OF_ASC_NODE":81.4892,"ARG_OF_PERICENTER":111.2705,"MEAN_ANOMALY":314.2435,"EPHEMERIS_TYPE":0,"CLASSIFICATION_TYPE":"U","NORAD_CAT_ID":9057,"ELEMENT_SET_NO":999,"REV_AT_EPOCH":24552,"BSTAR":6.7169e-5,"MEAN_MOTION_DOT":-3.7e-7,"MEAN_MOTION_DDOT":0},{"OBJECT_NAME":"TIROS N","OBJECT_ID":"1978-096A","EPOCH":"2026-04-05T19:28:09.051168","MEAN_MOTION":14.19351285,"ECCENTRICITY":0.0011642,"INCLINATION":98.4597,"RA_OF_ASC_NODE":120.1241,"ARG_OF_PERICENTER":92.738,"MEAN_ANOMALY":267.5129,"EPHEMERIS_TYPE":0,"CLASSIFICATION_TYPE":"U","NORAD_CAT_ID":11060,"ELEMENT_SET_NO":999,"REV_AT_EPOCH":66848,"BSTAR":0.00012539,"MEAN_MOTION_DOT":2.22e-6,"MEAN_MOTION_DDOT":0},{"OBJECT_NAME":"NOAA 6","OBJECT_ID":"1979-057A","EPOCH":"2026-04-05T14:19:48.351360","MEAN_MOTION":14.35455253,"ECCENTRICITY":0.0011,"INCLINATION":98.5707,"RA_OF_ASC_NODE":125.5828,"ARG_OF_PERICENTER":111.5746,"MEAN_ANOMALY":248.6613,"EPHEMERIS_TYPE":0,"CLASSIFICATION_TYPE":"U","NORAD_CAT_ID":11416,"ELEMENT_SET_NO":999,"REV_AT_EPOCH":44054,"BSTAR":0.00016207,"MEAN_MOTION_DOT":4.22e-6,"MEAN_MOTION_DDOT":0},{"OBJECT_NAME":"NOAA 7","OBJECT_ID":"1981-059A","EPOCH":"2026-04-05T18:15:55.954656","MEAN_MOTION":14.17779319,"ECCENTRICITY":0.0012473,"INCLINATION":98.8008,"RA_OF_ASC_NODE":163.5755,"ARG_OF_PERICENTER":113.8531,"MEAN_ANOMALY":246.3952,"EPHEMERIS_TYPE":0,"CLASSIFICATION_TYPE":"U","NORAD_CAT_ID":12553,"ELEMENT_SET_NO":999,"REV_AT_EPOCH":31448,"BSTAR":5.6116e-5,"MEAN_MOTION_DOT":7.0e-7,"MEAN_MOTION_DDOT":0},{"OBJECT_NAME":"NOAA 8","OBJECT_ID":"1983-022A","EPOCH":"2026-04-05T18:38:51.771840","MEAN_MOTION":14.29778195,"ECCENTRICITY":0.0015869,"INCLINATION":98.736,"RA_OF_ASC_NODE":108.6636,"ARG_OF_PERICENTER":109.2346,"MEAN_ANOMALY":251.0554,"EPHEMERIS_TYPE":0,"CLASSIFICATION_TYPE":"U","NORAD_CAT_ID":13923,"ELEMENT_SET_NO":999,"REV_AT_EPOCH":24072,"BSTAR":9.465e-5,"MEAN_MOTION_DOT":1.99e-6,"MEAN_MOTION_DDOT":0},{"OBJECT_NAME":"NOAA 9","OBJECT_ID":"1984-123A","EPOCH":"2026-04-05T16:45:50.679936","MEAN_MOTION":14.17048533,"ECCENTRICITY":0.0014489,"INCLINATION":99.106,"RA_OF_ASC_NODE":120.6349,"ARG_OF_PERICENTER":191.3556,"MEAN_ANOMALY":278.1918,"EPHEMERIS_TYPE":0,"CLASSIFICATION_TYPE":"U","NORAD_CAT_ID":15427,"ELEMENT_SET_NO":999,"REV_AT_EPOCH":13315,"BSTAR":0.00010211,"MEAN_MOTION_DOT":1.59e-6,"MEAN_MOTION_DDOT":0},{"OBJECT_NAME":"NOAA 10","OBJECT_ID":"1986-073A","EPOCH":"2026-04-05T13:51:44.839584","MEAN_MOTION":14.29155715,"ECCENTRICITY":0.0011525,"INCLINATION":98.7025,"RA_OF_ASC_NODE":88.9221,"ARG_OF_PERICENTER":203.7795,"MEAN_ANOMALY":266.0524,"EPHEMERIS_TYPE":0,"CLASSIFICATION_TYPE":"U","NORAD_CAT_ID":16969,"ELEMENT_SET_NO":999,"REV_AT_EPOCH":5904,"BSTAR":9.3461e-5,"MEAN_MOTION_DOT":1.93e-6,"MEAN_MOTION_DDOT":0},{"OBJECT_NAME":"NOAA 11","OBJECT_ID":"1988-089A","EPOCH":"2026-04-05T20:28:35.127840","MEAN_MOTION":14.15827171,"ECCENTRICITY":0.0011659,"INCLINATION":98.614,"RA_OF_ASC_NODE":43.9847,"ARG_OF_PERICENTER":141.2669,"MEAN_ANOMALY":218.9344,"EPHEMERIS_TYPE":0,"CLASSIFICATION_TYPE":"U","NORAD_CAT_ID":19531,"ELEMENT_SET_NO":999,"REV_AT_EPOCH":93724,"BSTAR":6.1056e-5,"MEAN_MOTION_DOT":7.8e-7,"MEAN_MOTION_DDOT":0},{"OBJECT_NAME":"NOAA 12","OBJECT_ID":"1991-032A","EPOCH":"2026-04-05T21:27:20.832768","MEAN_MOTION":14.26726806,"ECCENTRICITY":0.0012639,"INCLINATION":98.6181,"RA_OF_ASC_NODE":85.4773,"ARG_OF_PERICENTER":237.2399,"MEAN_ANOMALY":122.7564,"EPHEMERIS_TYPE":0,"CLASSIFICATION_TYPE":"U","NORAD_CAT_ID":21263,"ELEMENT_SET_NO":999,"REV_AT_EPOCH":81465,"BSTAR":7.7448e-5,"MEAN_MOTION_DOT":1.44e-6,"MEAN_MOTION_DDOT":0},{"OBJECT_NAME":"NOAA 13","OBJECT_ID":"1993-050A","EPOCH":"2026-04-05T19:53:30.327072","MEAN_MOTION":14.13645965,"ECCENTRICITY":0.0009177,"INCLINATION":98.6974,"RA_OF_ASC_NODE":42.8255,"ARG_OF_PERICENTER":342.9453,"MEAN_ANOMALY":17.141,"EPHEMERIS_TYPE":0,"CLASSIFICATION_TYPE":"U","NORAD_CAT_ID":22739,"ELEMENT_SET_NO":999,"REV_AT_EPOCH":68315,"BSTAR":0.00010929,"MEAN_MOTION_DOT":1.63e-6,"MEAN_MOTION_DDOT":0},{"OBJECT_NAME":"NOAA 14","OBJECT_ID":"1994-089A","EPOCH":"2026-04-05T20:12:03.254112","MEAN_MOTION":14.14661722,"ECCENTRICITY":0.0008423,"INCLINATION":98.5068,"RA_OF_ASC_NODE":68.7752,"ARG_OF_PERICENTER":295.0637,"MEAN_ANOMALY":64.9662,"EPHEMERIS_TYPE":0,"CLASSIFICATION_TYPE":"U","NORAD_CAT_ID":23455,"ELEMENT_SET_NO":999,"REV_AT_EPOCH":61297,"BSTAR":6.3586e-5,"MEAN_MOTION_DOT":8.1e-7,"MEAN_MOTION_DDOT":0},{"OBJECT_NAME":"NOAA 15","OBJECT_ID":"1998-030A","EPOCH":"2026-04-05T19:57:45.252864","MEAN_MOTION":14.27124058,"ECCENTRICITY":0.0009967,"INCLINATION":98.513,"RA_OF_ASC_NODE":118.4009,"ARG_OF_PERICENTER":192.993,"MEAN_ANOMALY":167.0995,"EPHEMERIS_TYPE":0,"CLASSIFICATION_TYPE":"U","NORAD_CAT_ID":25338,"ELEMENT_SET_NO":999,"REV_AT_EPOCH":45097,"BSTAR":9.232e-5,"MEAN_MOTION_DOT":1.83e-6,"MEAN_MOTION_DDOT":0},{"OBJECT_NAME":"NOAA 16","OBJECT_ID":"2000-055A","EPOCH":"2026-04-05T20:14:02.620032","MEAN_MOTION":14.1390626,"ECCENTRICITY":0.0011102,"INCLINATION":98.4678,"RA_OF_ASC_NODE":113.9285,"ARG_OF_PERICENTER":144.0089,"MEAN_ANOMALY":216.1834,"EPHEMERIS_TYPE":0,"CLASSIFICATION_TYPE":"U","NORAD_CAT_ID":26536,"ELEMENT_SET_NO":999,"REV_AT_EPOCH":61350,"BSTAR":8.6122e-5,"MEAN_MOTION_DOT":1.23e-6,"MEAN_MOTION_DDOT":0}]
