NOAA 1                  
1 04793U 70106A   26095.87687629 -.00000036  00000+0  37842-4 0  9999
2 04793 101.3454 133.7542 0032064 128.0285  46.0276 12.54049785531626
NOAA 2 (ITOS-D)         
1 06235U 72082A   26095.82294512 -.00000036  00000+0  64244-4 0  9993
2 06235 102.0138 113.5883 0003726 311.3696 221.3952 12.53212777445889
NOAA 3                  
1 06920U 73086A   26095.79613534 -.00000041  00000+0  38162-4 0  9990
2 06920 102.2889 109.0386 0006191 257.2025 276.8767 12.40392528372928
NOAA 4                  
1 07529U 74089A   26095.80289201 -.00000045  00000+0  92915-5 0  9993
2 07529 102.0058 107.8251 0008828 337.2501 195.8634 12.53202293350454
NOAA 5                  
1 09057U 76077A   26095.83504900 -.00000037  00000+0  67169-4 0  9992
2 09057 102.2992  81.4892 0010097 111.2705 314.2435 12.37829292245529
TIROS N                 
1 11060U 78096A   26095.81121587  .00000222  00000+0  12539-3 0  9991
2 11060  98.4597 120.1241 0011642  92.7380 267.5129 14.19351285668489
NOAA 6                  
1 11416U 79057A   26095.59708740  .00000422  00000+0  16207-3 0  9999
2 11416  98.5707 125.5828 0011000 111.5746 248.6613 14.35455253440543
NOAA 7                  
1 12553U 81059A   26095.76106429  .00000070  00000+0  56116-4 0  9995
2 12553  98.8008 163.5755 0012473 113.8531 246.3952 14.17779319314482
NOAA 8                  
1 13923U 83022A   26095.77698810  .00000199  00000+0  94650-4 0  9997
2 13923  98.7360 108.6636 0015869 109.2346 251.0554 14.29778195240727
NOAA 9                  
1 15427U 84123A   26095.69850324  .00000159  00000+0  10211-3 0  9998
2 15427  99.1060 120.6349 0014489 191.3556 278.1918 14.17048533133152
NOAA 10                 
1 16969U 86073A   26095.57760231  .00000193  00000+0  93461-4 0  9997
2 16969  98.7025  88.9221 0011525 203.7795 266.0524 14.29155715 59044
NOAA 11                 
1 19531U 88089A   26095.85318435  .00000078  00000+0  61056-4 0  9997
2 19531  98.6140  43.9847 0011659 141.2669 218.9344 14.15827171937248
NOAA 12                 
1 21263U 91032A   26095.89399112  .00000144  00000+0  77448-4 0  9995
2 21263  98.6181  85.4773 0012639 237.2399 122.7564 14.26726806814652
NOAA 13                 
1 22739U 93050A   26095.82882323  .00000163  00000+0  10929-3 0  9991
2 22739  98.6974  42.8255 0009177 342.9453  17.1410 14.13645965683159
NOAA 14                 
1 23455U 94089A   26095.84170433  .00000081  00000+0  63586-4 0  9991
2 23455  98.5068  68.7752 0008423 295.0637  64.9662 14.14661722612973
NOAA 15                 
1 25338U 98030A   26095.83177376  .00000183  00000+0  92320-4 0  9996
2 25338  98.5130 118.4009 0009967 192.9930 167.0995 14.27124058450972
NOAA 16                 
1 26536U 00055A   26095.84308588  .00000123  00000+0  86122-4 0  9996
2 26536  98.4678 113.9285 0011102 144.0089 216.1834 14.13906260613508
